start=new Date('2021-11-28T00:00:00.000Z').valueOf();
sats=[{"SITE":"AFETR","TIME_SYSTEM":"UTC","OBJECT_NAME":"STARLINK-1185","BSTAR":"-0.00005458800000","OBJECT_TYPE":"PAYLOAD","ECCENTRICITY":"0.00011480","ELEMENT_SET_NO":"999","MEAN_MOTION_DDOT":"0.0000000000000","GP_ID":"190620908","LAUNCH_DATE":"2020-01-29","MEAN_MOTION":"15.06399084","MEAN_ANOMALY":"279.8282","SEMIMAJOR_AXIS":"6925.351","CLASSIFICATION_TYPE":"U","COUNTRY_CODE":"US","DECAY_DATE":null,"NORAD_CAT_ID":"45087","FILE":"3225675","RA_OF_ASC_NODE":"63.2496","MEAN_ELEMENT_THEORY":"SGP4","TLE_LINE1":"1 45087U 20006AV  21331.67686040 -.00001094  00000-0 -54588-4 0  9999","RCS_SIZE":"LARGE","MEAN_MOTION_DOT":"-0.00001094","REV_AT_EPOCH":"10144","EPOCH":"2021-11-27T16:14:40.738560","PERIOD":"95.592","ARG_OF_PERICENTER":"80.2836","APOAPSIS":"548.011","REF_FRAME":"TEME","PERIAPSIS":"546.421","CENTER_NAME":"EARTH","TLE_LINE2":"2 45087  53.0560  63.2496 0001148  80.2836 279.8282 15.06399084101449","EPHEMERIS_TYPE":"0","OBJECT_ID":"2020-006AV","INCLINATION":"53.0560"},{"PERIOD":"95.593","ARG_OF_PERICENTER":"82.9717","EPOCH":"2021-11-27T15:10:59.286432","TLE_LINE1":"1 45088U 20006AW  21331.63263063 -.00000423  00000-0 -95202-5 0  9996","MEAN_ELEMENT_THEORY":"SGP4","RCS_SIZE":"LARGE","MEAN_MOTION_DOT":"-0.00000423","REV_AT_EPOCH":"10143","OBJECT_ID":"2020-006AW","INCLINATION":"53.0555","REF_FRAME":"TEME","APOAPSIS":"547.955","CENTER_NAME":"EARTH","PERIAPSIS":"546.524","EPHEMERIS_TYPE":"0","TLE_LINE2":"2 45088  53.0555  63.4642 0001033  82.9717 277.1389 15.06391575101434","ECCENTRICITY":"0.00010330","ELEMENT_SET_NO":"999","LAUNCH_DATE":"2020-01-29","GP_ID":"190621666","MEAN_MOTION_DDOT":"0.0000000000000","SITE":"AFETR","OBJECT_NAME":"STARLINK-1183","TIME_SYSTEM":"UTC","OBJECT_TYPE":"PAYLOAD","BSTAR":"-0.00000952020000","FILE":"3225675","RA_OF_ASC_NODE":"63.4642","NORAD_CAT_ID":"45088","MEAN_ANOMALY":"277.1389","MEAN_MOTION":"15.06391575","SEMIMAJOR_AXIS":"6925.374","CLASSIFICATION_TYPE":"U","COUNTRY_CODE":"US","DECAY_DATE":null},{"TLE_LINE2":"2 45089  53.0552  64.6102 0001415  86.8824 273.2327 15.06404119101407","EPHEMERIS_TYPE":"0","REF_FRAME":"TEME","APOAPSIS":"548.181","PERIAPSIS":"546.221","CENTER_NAME":"EARTH","INCLINATION":"53.0552","OBJECT_ID":"2020-006AX","MEAN_MOTION_DOT":"0.00000875","REV_AT_EPOCH":"10140","MEAN_ELEMENT_THEORY":"SGP4","TLE_LINE1":"1 45089U 20006AX  21331.36630478  .00000875  00000-0  77638-4 0  9996","RCS_SIZE":"LARGE","EPOCH":"2021-11-27T08:47:28.732992","ARG_OF_PERICENTER":"86.8824","PERIOD":"95.592","COUNTRY_CODE":"US","DECAY_DATE":null,"MEAN_MOTION":"15.06404119","MEAN_ANOMALY":"273.2327","CLASSIFICATION_TYPE":"U","SEMIMAJOR_AXIS":"6925.336","NORAD_CAT_ID":"45089","FILE":"3225405","RA_OF_ASC_NODE":"64.6102","BSTAR":"0.00007763800000","OBJECT_TYPE":"PAYLOAD","SITE":"AFETR","TIME_SYSTEM":"UTC","OBJECT_NAME":"STARLINK-1136","MEAN_MOTION_DDOT":"0.0000000000000","LAUNCH_DATE":"2020-01-29","GP_ID":"190592590","ECCENTRICITY":"0.00014150","ELEMENT_SET_NO":"999"},{"MEAN_ELEMENT_THEORY":"SGP4","TLE_LINE1":"1 45090U 20006AY  21331.68423465  .00000738  00000-0  68469-4 0  9999","RCS_SIZE":"LARGE","MEAN_MOTION_DOT":"0.00000738","REV_AT_EPOCH":"10144","EPOCH":"2021-11-27T16:25:17.873760","ARG_OF_PERICENTER":"69.8316","PERIOD":"95.592","APOAPSIS":"548.177","REF_FRAME":"TEME","PERIAPSIS":"546.260","CENTER_NAME":"EARTH","TLE_LINE2":"2 45090  53.0557  63.2223 0001384  69.8316 290.2822 15.06398510101445","EPHEMERIS_TYPE":"0","OBJECT_ID":"2020-006AY","INCLINATION":"53.0557","SITE":"AFETR","OBJECT_NAME":"STARLINK-1176","TIME_SYSTEM":"UTC","BSTAR":"0.00006846900000","OBJECT_TYPE":"PAYLOAD","ECCENTRICITY":"0.00013840","ELEMENT_SET_NO":"999","MEAN_MOTION_DDOT":"0.0000000000000","GP_ID":"190620672","LAUNCH_DATE":"2020-01-29","MEAN_MOTION":"15.06398510","MEAN_ANOMALY":"290.2822","SEMIMAJOR_AXIS":"6925.353","CLASSIFICATION_TYPE":"U","COUNTRY_CODE":"US","DECAY_DATE":null,"FILE":"3225675","RA_OF_ASC_NODE":"63.2223","NORAD_CAT_ID":"45090"},{"ARG_OF_PERICENTER":"72.5128","PERIOD":"95.593","EPOCH":"2021-11-27T12:37:04.055232","TLE_LINE1":"1 45092U 20006BA  21331.52574138 -.00000171  00000-0  74243-5 0  9998","MEAN_ELEMENT_THEORY":"SGP4","RCS_SIZE":"LARGE","MEAN_MOTION_DOT":"-0.00000171","REV_AT_EPOCH":"10141","OBJECT_ID":"2020-006BA","INCLINATION":"53.0558","APOAPSIS":"548.131","REF_FRAME":"TEME","CENTER_NAME":"EARTH","PERIAPSIS":"546.352","EPHEMERIS_TYPE":"0","TLE_LINE2":"2 45092  53.0558  63.9396 0001285  72.5128 287.6001 15.06390903101412","ECCENTRICITY":"0.00012850","ELEMENT_SET_NO":"999","LAUNCH_DATE":"2020-01-29","GP_ID":"190591623","MEAN_MOTION_DDOT":"0.0000000000000","SITE":"AFETR","OBJECT_NAME":"STARLINK-1137","TIME_SYSTEM":"UTC","OBJECT_TYPE":"PAYLOAD","BSTAR":"0.00000742430000","NORAD_CAT_ID":"45092","FILE":"3225405","RA_OF_ASC_NODE":"63.9396","MEAN_ANOMALY":"287.6001","MEAN_MOTION":"15.06390903","SEMIMAJOR_AXIS":"6925.376","CLASSIFICATION_TYPE":"U","COUNTRY_CODE":"US","DECAY_DATE":null},{"COUNTRY_CODE":"US","DECAY_DATE":null,"MEAN_MOTION":"15.06400934","MEAN_ANOMALY":"277.9276","CLASSIFICATION_TYPE":"U","SEMIMAJOR_AXIS":"6925.346","FILE":"3225675","RA_OF_ASC_NODE":"63.3560","NORAD_CAT_ID":"45093","BSTAR":"0.00001245700000","OBJECT_TYPE":"PAYLOAD","SITE":"AFETR","TIME_SYSTEM":"UTC","OBJECT_NAME":"STARLINK-1142","MEAN_MOTION_DDOT":"0.0000000000000","LAUNCH_DATE":"2020-01-29","GP_ID":"190621167","ECCENTRICITY":"0.00013370","ELEMENT_SET_NO":"999","TLE_LINE2":"2 45093  53.0557  63.3560 0001337  82.1865 277.9276 15.06400934101436","EPHEMERIS_TYPE":"0","REF_FRAME":"TEME","APOAPSIS":"548.137","PERIAPSIS":"546.285","CENTER_NAME":"EARTH","INCLINATION":"53.0557","OBJECT_ID":"2020-006BB","MEAN_MOTION_DOT":"-0.00000096","REV_AT_EPOCH":"10143","MEAN_ELEMENT_THEORY":"SGP4","TLE_LINE1":"1 45093U 20006BB  21331.65474229 -.00000096  00000-0  12457-4 0  9997","RCS_SIZE":"LARGE","EPOCH":"2021-11-27T15:42:49.733856","ARG_OF_PERICENTER":"82.1865","PERIOD":"95.592"},{"TIME_SYSTEM":"UTC","OBJECT_NAME":"STARLINK-1146","SITE":"AFETR","BSTAR":"0.00011713000000","OBJECT_TYPE":"PAYLOAD","ELEMENT_SET_NO":"999","ECCENTRICITY":"0.00011050","MEAN_MOTION_DDOT":"0.0000000000000","LAUNCH_DATE":"2020-01-29","GP_ID":"190619923","CLASSIFICATION_TYPE":"U","SEMIMAJOR_AXIS":"6925.342","MEAN_MOTION":"15.06402107","MEAN_ANOMALY":"285.8881","DECAY_DATE":null,"COUNTRY_CODE":"US","FILE":"3225675","RA_OF_ASC_NODE":"62.9807","NORAD_CAT_ID":"45094","RCS_SIZE":"LARGE","MEAN_ELEMENT_THEORY":"SGP4","TLE_LINE1":"1 45094U 20006BC  21331.73583107  .00001464  00000-0  11713-3 0  9995","REV_AT_EPOCH":"10145","MEAN_MOTION_DOT":"0.00001464","EPOCH":"2021-11-27T17:39:35.804448","ARG_OF_PERICENTER":"74.2230","PERIOD":"95.592","PERIAPSIS":"546.442","CENTER_NAME":"EARTH","APOAPSIS":"547.972","REF_FRAME":"TEME","TLE_LINE2":"2 45094  53.0572  62.9807 0001105  74.2230 285.8881 15.06402107101450","EPHEMERIS_TYPE":"0","OBJECT_ID":"2020-006BC","INCLINATION":"53.0572"},{"INCLINATION":"53.0564","OBJECT_ID":"2020-006BD","TLE_LINE2":"2 45095  53.0564  63.2787 0001081  72.2068 287.9039 15.06395522101442","EPHEMERIS_TYPE":"0","REF_FRAME":"TEME","APOAPSIS":"547.976","PERIAPSIS":"546.479","CENTER_NAME":"EARTH","EPOCH":"2021-11-27T16:09:22.877280","PERIOD":"95.592","ARG_OF_PERICENTER":"72.2068","MEAN_MOTION_DOT":"0.00001732","REV_AT_EPOCH":"10144","MEAN_ELEMENT_THEORY":"SGP4","TLE_LINE1":"1 45095U 20006BD  21331.67318145  .00001732  00000-0  13517-3 0  9999","RCS_SIZE":"LARGE","NORAD_CAT_ID":"45095","FILE":"3225675","RA_OF_ASC_NODE":"63.2787","COUNTRY_CODE":"US","DECAY_DATE":null,"MEAN_MOTION":"15.06395522","MEAN_ANOMALY":"287.9039","SEMIMAJOR_AXIS":"6925.362","CLASSIFICATION_TYPE":"U","MEAN_MOTION_DDOT":"0.0000000000000","LAUNCH_DATE":"2020-01-29","GP_ID":"190620173","ECCENTRICITY":"0.00010810","ELEMENT_SET_NO":"999","BSTAR":"0.00013517000000","OBJECT_TYPE":"PAYLOAD","SITE":"AFETR","TIME_SYSTEM":"UTC","OBJECT_NAME":"STARLINK-1147"},{"DECAY_DATE":null,"COUNTRY_CODE":"US","CLASSIFICATION_TYPE":"U","SEMIMAJOR_AXIS":"6925.344","MEAN_MOTION":"15.06401505","MEAN_ANOMALY":"282.3110","RA_OF_ASC_NODE":"63.6158","FILE":"3225675","NORAD_CAT_ID":"45096","BSTAR":"0.00000354890000","OBJECT_TYPE":"PAYLOAD","TIME_SYSTEM":"UTC","OBJECT_NAME":"STARLINK-1152","SITE":"AFETR","MEAN_MOTION_DDOT":"0.0000000000000","GP_ID":"190620909","LAUNCH_DATE":"2020-01-29","ELEMENT_SET_NO":"999","ECCENTRICITY":"0.00012360","TLE_LINE2":"2 45096  53.0560  63.6158 0001236  77.8018 282.3110 15.06401505101429","EPHEMERIS_TYPE":"0","PERIAPSIS":"546.353","CENTER_NAME":"EARTH","APOAPSIS":"548.065","REF_FRAME":"TEME","INCLINATION":"53.0560","OBJECT_ID":"2020-006BE","REV_AT_EPOCH":"10142","MEAN_MOTION_DOT":"-0.00000229","RCS_SIZE":"LARGE","MEAN_ELEMENT_THEORY":"SGP4","TLE_LINE1":"1 45096U 20006BE  21331.59944695 -.00000229  00000-0  35489-5 0  9991","EPOCH":"2021-11-27T14:23:12.216480","ARG_OF_PERICENTER":"77.8018","PERIOD":"95.592"},{"TIME_SYSTEM":"UTC","OBJECT_NAME":"STARLINK-1184","SITE":"AFETR","OBJECT_TYPE":"PAYLOAD","BSTAR":"0.00000024665000","ELEMENT_SET_NO":"999","ECCENTRICITY":"0.00012020","GP_ID":"190621667","LAUNCH_DATE":"2020-01-29","MEAN_MOTION_DDOT":"0.0000000000000","CLASSIFICATION_TYPE":"U","SEMIMAJOR_AXIS":"6925.347","MEAN_ANOMALY":"282.2842","MEAN_MOTION":"15.06400532","DECAY_DATE":null,"COUNTRY_CODE":"US","FILE":"3225675","RA_OF_ASC_NODE":"63.3965","NORAD_CAT_ID":"45098","RCS_SIZE":"LARGE","TLE_LINE1":"1 45098U 20006BG  21331.64736920 -.00000278  00000-0  24665-6 0  9998","MEAN_ELEMENT_THEORY":"SGP4","REV_AT_EPOCH":"10143","MEAN_MOTION_DOT":"-0.00000278","ARG_OF_PERICENTER":"77.8282","PERIOD":"95.592","EPOCH":"2021-11-27T15:32:12.698880","CENTER_NAME":"EARTH","PERIAPSIS":"546.380","APOAPSIS":"548.044","REF_FRAME":"TEME","EPHEMERIS_TYPE":"0","TLE_LINE2":"2 45098  53.0565  63.3965 0001202  77.8282 282.2842 15.06400532101436","OBJECT_ID":"2020-006BG","INCLINATION":"53.0565"}];
